#dP2024 11 26  0  0  0.00000000      96 __u+U IGS20 EXT  IAC
## 2342 172800.00000000   900.00000000 60640 0.0000000000000
+   52   G02G03G04G05G06G07G08G09G10G11G12G13G14G15G16G17G18
+        G19G20G21G22G23G24G25G26G27G28G29G30G31G32R01R02R03
+        R04R05R07R08R09R11R12R14R15R16R17R18R19R20R21R22R24
+        R26  0  0  0  0  0  0  0  0  0  0  0  0  0  0  0  0
+          0  0  0  0  0  0  0  0  0  0  0  0  0  0  0  0  0
++         9  7  8  7  7  7  7  7  7  7  7  7  7  8  8  6  7
++         7  8  8  7  8  7  7  7  7  7  7  7  7  7  8 10  9
++         6  9  8  8  9  8  6  8  8  8  7  7  9  9  8  8  8
++         8  0  0  0  0  0  0  0  0  0  0  0  0  0  0  0  0
++         0  0  0  0  0  0  0  0  0  0  0  0  0  0  0  0  0
%c M  cc GPS ccc cccc cccc cccc cccc ccccc ccccc ccccc ccccc
%c cc cc ccc ccc cccc cccc cccc cccc ccccc ccccc ccccc ccccc
%f  0.0000000  0.000000000  0.00000000000  0.000000000000000
%f  0.0000000  0.000000000  0.00000000000  0.000000000000000
%i    0    0    0    0      0      0      0      0         0
%i    0    0    0    0      0      0      0      0         0
/* IAC                                ULTRA-RAPID PREDICTION
/* S/V CLOCKS ARE ALIGNED TO GNSS TIME                      
/* G:C1WC2W R:C1PC2P E:C1XC5X C:C2IC6I J:C1CC2S             
/* PCV:IGS20_2317 OL/AL:FES2004  NONE     YN ORB:CoN CLK:CoN
*  2024 11 26 18 30  0.00000000
PG02 -14753.280201 -13141.621458 -17453.017423   -305.665606
PG03 -12631.497994 -22665.105295   5773.257979    610.129320
PG04  -8136.295811 -13293.395845  21502.566437    486.095859
PG05   4092.397033  24535.375222   9045.478964   -194.201566
PG06 -20912.652687   6466.362808  15199.383767   -145.101793
PG07 -25325.822801  -7582.086269   4950.177129    -18.052557
PG08   1134.577211 -20879.939859 -16230.581150    423.837056
PG09 -15451.480542  -4152.873618  21115.968462    461.273466
PG10  13287.675869  -5918.326203 -21989.374835   -210.933532
PG11  -8149.408616  13449.838455  21433.229833   -751.475623
PG12   9017.372884  24919.994256   1857.277818   -554.622439
PG13 -10911.645666  21120.492173 -11827.218485    687.633890
PG14 -15692.879367   1896.927822 -21319.359383    548.034344
PG15   2043.025582  20956.405373 -16626.294880    232.470583
PG16   2505.577505 -22870.239172  12515.340621   -118.332232
PG17 -21008.362121  10840.923012 -11881.964752    543.353136
PG18  25953.027931   5920.108315   1906.042236   -660.584567
PG19 -19973.877215  16867.167315  -3227.881613    567.285132
PG20  -3682.557474  18923.723468  18411.223819    368.401504
PG21  -8755.818783 -14698.863769 -20191.699795     96.490586
PG22 -11947.142310  10942.962629 -20710.989160    -82.295261
PG23  17012.425623   9032.369984 -18350.766443    371.391144
PG24  12357.718227  14736.026575 -18942.549726   -477.822751
PG25  16548.113958  16218.482260  12866.035476    498.693009
PG26   9191.595308 -14792.371009  19778.172859     12.542211
PG27  10954.151417 -22717.938359  -7883.590098    -34.573745
PG28  22178.347737  -6431.796140  13112.986078   -490.892113
PG29  14681.048312   5800.389728  21337.248917   -560.733269
PG30 -25775.390392   1023.235061  -6746.072297   -273.810427
PG31  13723.143844 -11544.007816  19462.683588   -221.066926
PG32  19950.516895 -14174.283781  -9840.186516   -568.109700
PR01   9225.100743 -23370.775960  -4420.081088    105.712120
PR02   1447.996704 -22099.377224  12629.666539    -39.396679
PR03  -8280.366322  -8530.409647  22602.757184    112.112614
PR04 -12926.771886   9104.593878  20050.149341    265.767528
PR05 -11012.689029  21997.418118   6813.753876    141.302449
PR07   8370.452880   8242.236469 -22611.565852     95.737590
PR08  12914.191915  -9432.939761 -19799.955868     -6.222623
PR09  11130.399706  19879.205344 -11370.478852    222.781832
PR11  16588.035748   5093.236517  18696.093121      6.072329
PR12   3727.769446 -11858.990167  22291.116448     47.682159
PR14 -18685.065581 -16462.835430  -5563.153186     27.287754
PR15 -15885.049870  -3592.219800 -19620.448576     73.714031
PR16  -3730.761235  11628.580311 -22385.046828     31.093246
PR17 -19687.097806  -3507.078640 -15791.847717    143.334342
PR18 -25148.026940   4371.358102   -571.968126    173.800257
PR19 -19581.839145   9124.680193  13564.240869   -299.846479
PR20   1465.368495  10332.849567  23291.588580   -122.410964
PR21  18954.625884   4121.050887  16590.264151   -154.612288
PR22  25122.451881  -4350.206376   -593.920465    -22.454257
PR24  -2618.863601 -10600.511001 -23027.575008    -81.701783
PR26  12707.968018  -7742.264140 -20704.267341   -133.269930
*  2024 11 26 18 45  0.00000000
PG02 -12591.167893 -13179.622780 -18976.681300   -305.657816
PG03 -12672.549344 -23204.432122   2928.466295    610.138077
PG04  -6560.969257 -15129.658192  20802.405369    486.101590
PG05   3391.302495  23535.998507  11589.970769   -194.202656
PG06 -22469.937206   6118.310830  12953.722184   -145.128658
PG07 -24651.169742  -7732.862295   7638.232330    -18.050840
PG08   2315.348987 -22178.681163 -14203.470305    423.845850
PG09 -14050.656118  -6178.878098  21585.612670    461.288654
PG10  14279.736621  -3565.511853 -21905.318079   -210.946876
PG11 -10504.816021  12978.499235  20678.877439   -751.476636
PG12   8807.209801  25076.775846   -996.958118   -554.624677
PG13 -11897.249673  21806.490376  -9291.916244    687.635188
PG14 -16540.729350   -370.297466 -20774.357536    548.041468
PG15   1043.760189  22372.286995 -14687.425830    232.474640
PG16   3230.859928 -21392.922179  14745.548025   -118.323516
PG17 -20150.455995   9542.685345 -14163.435747    543.339564
PG18  25554.739918   6062.293485   4741.692601   -660.584635
PG19 -19814.137968  16303.016584  -6051.721876    567.289050
PG20  -4968.290299  17176.742502  19765.039375    368.401208
PG21  -6339.031301 -14660.088808 -20992.355849     96.489713
PG22 -12747.848123   8592.903122 -21294.693031    -82.297714
PG23  17738.949638  10891.982060 -16591.942092    371.398219
PG24  10211.048121  14799.398006 -20127.456651   -477.820484
PG25  16898.315434  17572.844933  10501.832300    498.692696
PG26  10400.558268 -12756.564731  20608.310634     12.530116
PG27  11603.377596 -23132.127985  -5137.650738    -34.573557
PG28  23518.591322  -6093.075631  10725.224214   -490.902370
PG29  13070.132261   7675.781789  21776.242744   -560.730602
PG30 -26366.438686    649.958993  -4048.299665   -273.803317
PG31  15867.892364 -11104.969499  18088.351068   -221.066273
PG32  19362.444409 -12987.676787 -12308.430373   -568.104666
PR01   8894.206413 -22696.477055  -7523.509385    105.713180
PR02   1713.445572 -23463.045789   9806.530301    -39.396687
PR03  -7545.943864 -11154.922439  21691.478514    112.113147
PR04 -12090.783337   6686.196938  21473.315885    265.769042
PR05 -10540.212903  21070.608425   9824.773126    141.302913
PR07   7627.814512  10886.341524 -21745.563332     95.738013
PR08  12113.442800  -7012.283913 -21257.163350     -6.222664
PR09  10060.558567  18726.665421 -14019.315691    222.783714
PR11  18170.488518   6595.083989  16640.626284      6.071596
PR12   5633.629571  -9833.073704  22870.722073     47.682475
PR14 -19112.624296 -16734.258094  -2415.716754     27.287766
PR15 -17534.703734  -5209.562301 -17767.049649     73.713625
PR16  -5653.735893   9594.949389 -22941.786576     31.093429
PR17 -17621.713769  -3858.815449 -17997.172093    143.337285
PR18 -24838.701537   4511.607773  -3791.640528    173.801840
PR19 -21027.903884   9580.023678  10802.356481   -299.847697
PR20  -1344.554729  10865.653436  23057.980717   -122.411368
PR21  16801.908750   4466.576244  18686.457588   -154.615247
PR22  24976.298452  -4468.696036   2614.450683    -22.465135
PR24    142.527104 -11255.828109 -22866.370506    -81.703187
PR26  11906.051509  -5230.914603 -21929.130952   -133.269728
EOF
